{
  "languagess": [
    {
      "id": 1,
      "nativeName": "العربية",
      "name": "Arabic (Israel)",
      "localizedName": "阿拉伯语（以色列)",
      "isoCode": "ar_IL"
    },
    {
      "id": 2,
      "nativeName": "العربية",
      "name": "Arabic (Egypt)",
      "localizedName": "阿拉伯语（埃及)",
      "isoCode": "ar_EG"
    },
    {
      "id": 3,
      "nativeName": "中文",
      "name": "Chinese Simplified",
      "localizedName": "中文简体",
      "isoCode": "zh_CN"
    },
    {
      "id": 4,
      "nativeName": "中文",
      "name": "Chinese Tradition",
      "localizedName": "中文繁体",
      "isoCode": "zh_TW"
    },
    {
      "id": 5,
      "nativeName": "粤语",
      "name": "Cantonese",
      "localizedName": "中文（香港)",
      "isoCode": "zh_HK"
    },
    {
      "id": 6,
      "nativeName": "Nederlands",
      "name": "Dutch (Netherlands)",
      "localizedName": "荷兰语",
      "isoCode": "nl_NL"
    },
    {
      "id": 7,
      "nativeName": "Nederlands",
      "name": "Dutch (Belgium)",
      "localizedName": "荷兰语（比利时)",
      "isoCode": "nl_BE"
    },
    {
      "id": 8,
      "nativeName": "English",
      "name": "English (United States)",
      "localizedName": "英语（美国)",
      "isoCode": "en_US"
    },
    {
      "id": 9,
      "nativeName": "English",
      "name": "English (Australia)",
      "localizedName": "英语（澳大利亚)",
      "isoCode": "en_AU"
    },
    {
      "id": 10,
      "nativeName": "English",
      "name": "English (Canada)",
      "localizedName": "英语（加拿大)",
      "isoCode": "en_CA"
    },
    {
      "id": 11,
      "nativeName": "English",
      "name": "English (India)",
      "localizedName": "英语（印度)",
      "isoCode": "en_IN"
    },
    {
      "id": 12,
      "nativeName": "English",
      "name": "English (Ireland)",
      "localizedName": "英语（爱尔兰)",
      "isoCode": "en_IE"
    },
    {
      "id": 13,
      "nativeName": "English",
      "name": "English (New Zealand)",
      "localizedName": "英语（新西兰)",
      "isoCode": "en_NZ"
    },
    {
      "id": 14,
      "nativeName": "English",
      "name": "English (Singapore)",
      "localizedName": "英语（新加坡)",
      "isoCode": "en_SG"
    },
    {
      "id": 15,
      "nativeName": "English",
      "name": "English (South Africa)",
      "localizedName": "英语（南非)",
      "isoCode": "en_ZA"
    },
    {
      "id": 16,
      "nativeName": "English",
      "name": "English (United Kingdom)",
      "localizedName": "英语（英国)",
      "isoCode": "en_GB"
    },
    {
      "id": 17,
      "nativeName": "Français",
      "name": "French",
      "localizedName": "法语",
      "isoCode": "fr_FR"
    },
    {
      "id": 18,
      "nativeName": "Français",
      "name": "French (Belgium)",
      "localizedName": "法语（比利时)",
      "isoCode": "fr_BE"
    },
    {
      "id": 19,
      "nativeName": "Français",
      "name": "French (Canada)",
      "localizedName": "法语（加拿大)",
      "isoCode": "fr_CA"
    },
    {
      "id": 20,
      "nativeName": "Français",
      "name": "French (Switzerland)",
      "localizedName": "法语（瑞士)",
      "isoCode": "fr_CH"
    },
    {
      "id": 21,
      "nativeName": "Deutsch",
      "name": "German",
      "localizedName": "德语",
      "isoCode": "de_DE"
    },
    {
      "id": 22,
      "nativeName": "Deutsch",
      "name": "German (Liechtenstein)",
      "localizedName": "德语（列支敦斯登)",
      "isoCode": "de_LI"
    },
    {
      "id": 23,
      "nativeName": "Deutsch",
      "name": "German (Austria)",
      "localizedName": "德语（奥地利)",
      "isoCode": "de_AT"
    },
    {
      "id": 24,
      "nativeName": "Deutsch",
      "name": "German (Switzerland)",
      "localizedName": "德语（瑞士)",
      "isoCode": "de_CH"
    },
    {
      "id": 25,
      "nativeName": "Italiano",
      "name": "Italian",
      "localizedName": "意大利语",
      "isoCode": "it_IT"
    },
    {
      "id": 26,
      "nativeName": "Italiano",
      "name": "Italian (Switzerland)",
      "localizedName": "意大利语（瑞士)",
      "isoCode": "it_CH"
    },
    {
      "id": 27,
      "nativeName": "Protuguês",
      "name": "Portuguese (Brazil)",
      "localizedName": "葡萄牙语（巴西）",
      "isoCode": "pt_BR"
    },
    {
      "id": 28,
      "nativeName": "Protuguês",
      "name": "Portuguese",
      "localizedName": "葡萄牙语",
      "isoCode": "pt_PT"
    },
    {
      "id": 29,
      "nativeName": "Español",
      "name": "Spanish",
      "localizedName": "西班牙语",
      "isoCode": "es_ES"
    },
    {
      "id": 30,
      "nativeName": "Español",
      "name": "Spanish (United States)",
      "localizedName": "西班牙语（美国)",
      "isoCode": "es_US"
    },
    {
      "id": 31,
      "nativeName": "বাংলা",
      "name": "Bengali",
      "localizedName": "孟加拉语",
      "isoCode": "bn_BD"
    },
    {
      "id": 32,
      "nativeName": "বাংলা",
      "name": "Bengali (India)",
      "localizedName": "孟加拉语（印度)",
      "isoCode": "bn_IN"
    },
    {
      "id": 33,
      "nativeName": "hrvatski",
      "name": "Croatian",
      "localizedName": "克罗地亚语",
      "isoCode": "hr_HR"
    },
    {
      "id": 34,
      "nativeName": "čeština",
      "name": "Czech",
      "localizedName": "捷克语",
      "isoCode": "cs_CZ"
    },
    {
      "id": 35,
      "nativeName": "Dansk",
      "name": "Danish",
      "localizedName": "丹麦语",
      "isoCode": "da_DK"
    },
    {
      "id": 36,
      "nativeName": "ελληνικά",
      "name": "Greek",
      "localizedName": "希腊语",
      "isoCode": "el_GR"
    },
    {
      "id": 37,
      "nativeName": "עברית",
      "name": "Hebrew (Israel)",
      "localizedName": "希伯来语（以色列)",
      "isoCode": "he_IL"
    },
    {
      "id": 38,
      "nativeName": "עברית",
      "name": "Hebrew (Israel)",
      "localizedName": "希伯来语（以色列)",
      "isoCode": "iw_IL"
    },
    {
      "id": 39,
      "nativeName": "हिंदी",
      "name": "Hindi",
      "localizedName": "印度语",
      "isoCode": "hi_IN"
    },
    {
      "id": 40,
      "nativeName": "Magyar",
      "name": "Hungarian",
      "localizedName": "匈牙利语",
      "isoCode": "hu_HU"
    },
    {
      "id": 41,
      "nativeName": "",
      "name": "Indonesian",
      "localizedName": "印度尼西亚语",
      "isoCode": "in_ID"
    },
    {
      "id": 42,
      "nativeName": "日本語",
      "name": "Japanese",
      "localizedName": "日语",
      "isoCode": "ja_JP"
    },
    {
      "id": 43,
      "nativeName": "한국어",
      "name": "Korean",
      "localizedName": "韩语",
      "isoCode": "ko_KR"
    },
    {
      "id": 44,
      "nativeName": "latviešu",
      "name": "Latvian",
      "localizedName": "拉脱维亚语",
      "isoCode": "lv_LV"
    },
    {
      "id": 45,
      "nativeName": "lietuvių",
      "name": "Lithuanian",
      "localizedName": "立陶宛语",
      "isoCode": "lt_LT"
    },
    {
      "id": 46,
      "nativeName": "polski",
      "name": "Polish",
      "localizedName": "波兰语",
      "isoCode": "pl_PL"
    },
    {
      "id": 47,
      "nativeName": "limba română",
      "name": "Romanian",
      "localizedName": "罗马尼亚语",
      "isoCode": "ro_RO"
    },
    {
      "id": 48,
      "nativeName": "српски",
      "name": "Serbian",
      "localizedName": "塞尔维亚语",
      "isoCode": "sr_RS"
    },
    {
      "id": 49,
      "nativeName": "slovenčina",
      "name": "Slovak",
      "localizedName": "斯洛伐克语",
      "isoCode": "sk_SK"
    },
    {
      "id": 50,
      "nativeName": "slovenščina",
      "name": "Slovenian",
      "localizedName": "斯洛文尼亚语",
      "isoCode": "sl_SI"
    },
    {
      "id": 51,
      "nativeName": "svenska",
      "name": "Swedish",
      "localizedName": "瑞典语",
      "isoCode": "sv_SE"
    },
    {
      "id": 52,
      "nativeName": "Filipino",
      "name": "Tagalog",
      "localizedName": "菲律宾语",
      "isoCode": "tl_PH"
    },
    {
      "id": 53,
      "nativeName": "Türkçe",
      "name": "Turkish",
      "localizedName": "土耳其语",
      "isoCode": "tr_TR"
    },
    {
      "id": 54,
      "nativeName": "українська",
      "name": "Ukrainian",
      "localizedName": "乌克兰语",
      "isoCode": "uk_UA"
    },
    {
      "id": 55,
      "nativeName": "Tiếng Việt",
      "name": "Vietnamese",
      "localizedName": "越南语",
      "isoCode": "vi_VN"
    }
  ]
}